start=new Date('2022-01-16T00:00:00.000Z').valueOf();
sats=[{"PERIOD":"95.592","MEAN_MOTION_DDOT":"0.0000000000000","FILE":"3274074","TIME_SYSTEM":"UTC","EPOCH":"2022-01-15T18:59:08.365920","SEMIMAJOR_AXIS":"6925.336","NORAD_CAT_ID":"46533","ECCENTRICITY":"0.00016280","OBJECT_TYPE":"PAYLOAD","REV_AT_EPOCH":"7132","BSTAR":"0.00011661000000","TLE_LINE1":"1 46533U 20070B   22015.79106905  .00001456  00000-0  11661-3 0  9991","RA_OF_ASC_NODE":"132.7758","APOAPSIS":"548.328","LAUNCH_DATE":"2020-10-06","MEAN_MOTION_DOT":"0.00001456","ARG_OF_PERICENTER":"97.8644","MEAN_ELEMENT_THEORY":"SGP4","DECAY_DATE":null,"REF_FRAME":"TEME","CENTER_NAME":"EARTH","RCS_SIZE":"LARGE","OBJECT_NAME":"STARLINK-1648","EPHEMERIS_TYPE":"0","COUNTRY_CODE":"US","GP_ID":"193946978","MEAN_ANOMALY":"262.2530","SITE":"AFETR","OBJECT_ID":"2020-070B","MEAN_MOTION":"15.06404217","CLASSIFICATION_TYPE":"U","ELEMENT_SET_NO":"999","INCLINATION":"53.0517","TLE_LINE2":"2 46533  53.0517 132.7758 0001628  97.8644 262.2530 15.06404217 71325","PERIAPSIS":"546.073"},{"EPHEMERIS_TYPE":"0","COUNTRY_CODE":"US","RCS_SIZE":"LARGE","OBJECT_NAME":"STARLINK-1659","MEAN_ANOMALY":"276.3920","GP_ID":"193947230","ELEMENT_SET_NO":"999","SITE":"AFETR","OBJECT_ID":"2020-070C","MEAN_MOTION":"15.06404733","CLASSIFICATION_TYPE":"U","PERIAPSIS":"546.242","INCLINATION":"53.0560","TLE_LINE2":"2 46534  53.0560 132.5535 0001382  83.7226 276.3920 15.06404733 71335","TIME_SYSTEM":"UTC","PERIOD":"95.592","MEAN_MOTION_DDOT":"0.0000000000000","FILE":"3274074","EPOCH":"2022-01-15T20:08:08.422368","NORAD_CAT_ID":"46534","SEMIMAJOR_AXIS":"6925.334","ECCENTRICITY":"0.00013820","OBJECT_TYPE":"PAYLOAD","BSTAR":"0.00012693000000","TLE_LINE1":"1 46534U 20070C   22015.83898637  .00001610  00000-0  12693-3 0  9995","RA_OF_ASC_NODE":"132.5535","LAUNCH_DATE":"2020-10-06","APOAPSIS":"548.156","MEAN_MOTION_DOT":"0.00001610","REV_AT_EPOCH":"7133","DECAY_DATE":null,"REF_FRAME":"TEME","CENTER_NAME":"EARTH","ARG_OF_PERICENTER":"83.7226","MEAN_ELEMENT_THEORY":"SGP4"},{"OBJECT_NAME":"STARLINK-1663","RCS_SIZE":"LARGE","COUNTRY_CODE":"US","EPHEMERIS_TYPE":"0","GP_ID":"193947975","MEAN_ANOMALY":"270.7277","CLASSIFICATION_TYPE":"U","MEAN_MOTION":"15.06405334","SITE":"AFETR","OBJECT_ID":"2020-070D","ELEMENT_SET_NO":"999","TLE_LINE2":"2 46535  53.0548 133.5065 0001633  89.3899 270.7277 15.06405334 71294","INCLINATION":"53.0548","PERIAPSIS":"546.066","MEAN_MOTION_DDOT":"0.0000000000000","FILE":"3274074","PERIOD":"95.592","TIME_SYSTEM":"UTC","OBJECT_TYPE":"PAYLOAD","ECCENTRICITY":"0.00016330","SEMIMAJOR_AXIS":"6925.332","NORAD_CAT_ID":"46535","EPOCH":"2022-01-15T15:05:36.168576","REV_AT_EPOCH":"7129","APOAPSIS":"548.328","LAUNCH_DATE":"2020-10-06","MEAN_MOTION_DOT":"0.00000171","RA_OF_ASC_NODE":"133.5065","TLE_LINE1":"1 46535U 20070D   22015.62889084  .00000171  00000-0  30383-4 0  9997","BSTAR":"0.00003038300000","MEAN_ELEMENT_THEORY":"SGP4","ARG_OF_PERICENTER":"89.3899","CENTER_NAME":"EARTH","DECAY_DATE":null,"REF_FRAME":"TEME"},{"TLE_LINE1":"1 46536U 20070E   22015.42593051  .00168836  00000-0  72504-3 0  9995","BSTAR":"0.00072504000000","MEAN_MOTION_DOT":"0.00168836","LAUNCH_DATE":"2020-10-06","APOAPSIS":"330.804","RA_OF_ASC_NODE":"69.9595","REV_AT_EPOCH":"7217","CENTER_NAME":"EARTH","REF_FRAME":"TEME","DECAY_DATE":null,"MEAN_ELEMENT_THEORY":"SGP4","ARG_OF_PERICENTER":"8.0282","TIME_SYSTEM":"UTC","MEAN_MOTION_DDOT":"0.0000000000000","FILE":"3273762","PERIOD":"90.917","SEMIMAJOR_AXIS":"6697.648","NORAD_CAT_ID":"46536","EPOCH":"2022-01-15T10:13:20.396064","OBJECT_TYPE":"PAYLOAD","ECCENTRICITY":"0.00168580","ELEMENT_SET_NO":"999","SITE":"AFETR","OBJECT_ID":"2020-070E","CLASSIFICATION_TYPE":"U","MEAN_MOTION":"15.83869099","PERIAPSIS":"308.222","TLE_LINE2":"2 46536  53.0516  69.9595 0016858   8.0282 352.1007 15.83869099 72170","INCLINATION":"53.0516","COUNTRY_CODE":"US","EPHEMERIS_TYPE":"0","RCS_SIZE":"LARGE","OBJECT_NAME":"STARLINK-1668","MEAN_ANOMALY":"352.1007","GP_ID":"193915601"},{"CLASSIFICATION_TYPE":"U","MEAN_MOTION":"15.06417189","OBJECT_ID":"2020-070F","SITE":"AFETR","ELEMENT_SET_NO":"999","TLE_LINE2":"2 46537  53.0532 132.7917 0001756  94.3714 265.7475 15.06417189 71323","INCLINATION":"53.0532","PERIAPSIS":"545.945","OBJECT_NAME":"STARLINK-1672","RCS_SIZE":"LARGE","COUNTRY_CODE":"US","EPHEMERIS_TYPE":"0","GP_ID":"193946479","MEAN_ANOMALY":"265.7475","REV_AT_EPOCH":"7132","LAUNCH_DATE":"2020-10-06","APOAPSIS":"548.377","MEAN_MOTION_DOT":"0.00001941","RA_OF_ASC_NODE":"132.7917","TLE_LINE1":"1 46537U 20070F   22015.78737375  .00001941  00000-0  14911-3 0  9995","BSTAR":"0.00014911000000","MEAN_ELEMENT_THEORY":"SGP4","ARG_OF_PERICENTER":"94.3714","CENTER_NAME":"EARTH","DECAY_DATE":null,"REF_FRAME":"TEME","MEAN_MOTION_DDOT":"0.0000000000000","FILE":"3274074","PERIOD":"95.591","TIME_SYSTEM":"UTC","OBJECT_TYPE":"PAYLOAD","ECCENTRICITY":"0.00017560","SEMIMAJOR_AXIS":"6925.296","NORAD_CAT_ID":"46537","EPOCH":"2022-01-15T18:53:49.092000"},{"COUNTRY_CODE":"US","EPHEMERIS_TYPE":"0","RCS_SIZE":"LARGE","OBJECT_NAME":"STARLINK-1678","MEAN_ANOMALY":"271.3585","GP_ID":"193947730","ELEMENT_SET_NO":"999","SITE":"AFETR","OBJECT_ID":"2020-070G","CLASSIFICATION_TYPE":"U","MEAN_MOTION":"15.06401620","PERIAPSIS":"546.154","TLE_LINE2":"2 46538  53.0541 133.4861 0001523  88.7579 271.3585 15.06401620 71292","INCLINATION":"53.0541","TIME_SYSTEM":"UTC","FILE":"3274074","MEAN_MOTION_DDOT":"0.0000000000000","PERIOD":"95.592","SEMIMAJOR_AXIS":"6925.344","NORAD_CAT_ID":"46538","EPOCH":"2022-01-15T15:10:54.331392","OBJECT_TYPE":"PAYLOAD","ECCENTRICITY":"0.00015230","TLE_LINE1":"1 46538U 20070G   22015.63257328  .00004291  00000-0  30679-3 0  9995","BSTAR":"0.00030679000000","MEAN_MOTION_DOT":"0.00004291","LAUNCH_DATE":"2020-10-06","APOAPSIS":"548.263","RA_OF_ASC_NODE":"133.4861","REV_AT_EPOCH":"7129","CENTER_NAME":"EARTH","DECAY_DATE":null,"REF_FRAME":"TEME","MEAN_ELEMENT_THEORY":"SGP4","ARG_OF_PERICENTER":"88.7579"},{"ECCENTRICITY":"0.00015630","OBJECT_TYPE":"PAYLOAD","EPOCH":"2022-01-15T18:56:26.409120","SEMIMAJOR_AXIS":"6789.019","NORAD_CAT_ID":"46539","PERIOD":"92.783","FILE":"3274074","MEAN_MOTION_DDOT":"0.0000000000000","TIME_SYSTEM":"UTC","ARG_OF_PERICENTER":"43.4128","MEAN_ELEMENT_THEORY":"SGP4","DECAY_DATE":null,"REF_FRAME":"TEME","CENTER_NAME":"EARTH","REV_AT_EPOCH":"7144","RA_OF_ASC_NODE":"124.6666","LAUNCH_DATE":"2020-10-06","MEAN_MOTION_DOT":"0.00121092","APOAPSIS":"411.945","BSTAR":"0.00195550000000","TLE_LINE1":"1 46539U 20070H   22015.78919455  .00121092  00000-0  19555-2 0  9996","GP_ID":"193947476","MEAN_ANOMALY":"316.7004","OBJECT_NAME":"STARLINK-1684","RCS_SIZE":"LARGE","EPHEMERIS_TYPE":"0","COUNTRY_CODE":"US","INCLINATION":"53.0481","TLE_LINE2":"2 46539  53.0481 124.6666 0001563  43.4128 316.7004 15.52001947 71449","PERIAPSIS":"409.823","MEAN_MOTION":"15.52001947","CLASSIFICATION_TYPE":"U","SITE":"AFETR","OBJECT_ID":"2020-070H","ELEMENT_SET_NO":"999"},{"TLE_LINE2":"2 46541  53.0568 113.5675 0001352  98.4678 261.6465 15.06415789 71576","INCLINATION":"53.0568","PERIAPSIS":"546.229","OBJECT_ID":"2020-070K","SITE":"AFETR","CLASSIFICATION_TYPE":"U","MEAN_MOTION":"15.06415789","ELEMENT_SET_NO":"999","GP_ID":"193946729","MEAN_ANOMALY":"261.6465","RCS_SIZE":"LARGE","OBJECT_NAME":"STARLINK-1687","COUNTRY_CODE":"US","EPHEMERIS_TYPE":"0","MEAN_ELEMENT_THEORY":"SGP4","ARG_OF_PERICENTER":"98.4678","CENTER_NAME":"EARTH","DECAY_DATE":null,"REF_FRAME":"TEME","REV_AT_EPOCH":"7157","TLE_LINE1":"1 46541U 20070K   22015.61229549  .00001848  00000-0  14289-3 0  9995","BSTAR":"0.00014289000000","APOAPSIS":"548.101","LAUNCH_DATE":"2020-10-06","MEAN_MOTION_DOT":"0.00001848","RA_OF_ASC_NODE":"113.5675","NORAD_CAT_ID":"46541","SEMIMAJOR_AXIS":"6925.300","EPOCH":"2022-01-15T14:41:42.330336","OBJECT_TYPE":"PAYLOAD","ECCENTRICITY":"0.00013520","FILE":"3274074","MEAN_MOTION_DDOT":"0.0000000000000","PERIOD":"95.591","TIME_SYSTEM":"UTC"},{"GP_ID":"193946979","MEAN_ANOMALY":"266.5610","RCS_SIZE":"LARGE","OBJECT_NAME":"STARLINK-1692","COUNTRY_CODE":"US","EPHEMERIS_TYPE":"0","TLE_LINE2":"2 46542  53.0543 133.2724 0001379  93.5537 266.5610 15.06398697 71308","INCLINATION":"53.0543","PERIAPSIS":"546.263","OBJECT_ID":"2020-070L","SITE":"AFETR","CLASSIFICATION_TYPE":"U","MEAN_MOTION":"15.06398697","ELEMENT_SET_NO":"999","SEMIMAJOR_AXIS":"6925.353","NORAD_CAT_ID":"46542","EPOCH":"2022-01-15T16:19:54.474240","OBJECT_TYPE":"PAYLOAD","ECCENTRICITY":"0.00013790","FILE":"3274074","MEAN_MOTION_DDOT":"0.0000000000000","PERIOD":"95.592","TIME_SYSTEM":"UTC","MEAN_ELEMENT_THEORY":"SGP4","ARG_OF_PERICENTER":"93.5537","CENTER_NAME":"EARTH","DECAY_DATE":null,"REF_FRAME":"TEME","REV_AT_EPOCH":"7130","TLE_LINE1":"1 46542U 20070L   22015.68049160  .00000914  00000-0  80271-4 0  9990","BSTAR":"0.00008027100000","MEAN_MOTION_DOT":"0.00000914","LAUNCH_DATE":"2020-10-06","APOAPSIS":"548.173","RA_OF_ASC_NODE":"133.2724"},{"FILE":"3274074","MEAN_MOTION_DDOT":"0.0000000000000","PERIOD":"95.591","TIME_SYSTEM":"UTC","NORAD_CAT_ID":"46543","SEMIMAJOR_AXIS":"6925.312","EPOCH":"2022-01-15T19:09:44.786592","OBJECT_TYPE":"PAYLOAD","ECCENTRICITY":"0.00013470","REV_AT_EPOCH":"7132","TLE_LINE1":"1 46543U 20070M   22015.79843503  .00000786  00000-0  71620-4 0  9991","BSTAR":"0.00007162000000","MEAN_MOTION_DOT":"0.00000786","LAUNCH_DATE":"2020-10-06","APOAPSIS":"548.110","RA_OF_ASC_NODE":"132.7333","MEAN_ELEMENT_THEORY":"SGP4","ARG_OF_PERICENTER":"75.8549","CENTER_NAME":"EARTH","REF_FRAME":"TEME","DECAY_DATE":null,"RCS_SIZE":"LARGE","OBJECT_NAME":"STARLINK-1693","COUNTRY_CODE":"US","EPHEMERIS_TYPE":"0","GP_ID":"193947231","MEAN_ANOMALY":"284.2590","SITE":"AFETR","OBJECT_ID":"2020-070M","CLASSIFICATION_TYPE":"U","MEAN_MOTION":"15.06411910","ELEMENT_SET_NO":"999","TLE_LINE2":"2 46543  53.0546 132.7333 0001347  75.8549 284.2590 15.06411910 71323","INCLINATION":"53.0546","PERIAPSIS":"546.244"}];
